{"venues":{"v_1":{"name":"Grinton Lodge Youth Hostel","postcode":"DL11 6HS","town":"Richmond","url":"http://www.yha.org.uk/hostel/grinton-lodge","icon":"http://www.yha.org.uk/sites/all/themes/yha/images/logos/yha_header_logo.png"},"v_2":{"name":"Sage Gateshead","postcode":"NE8 2JR","town":"Gateshead","url":"http://www.sagegateshead.com/","icon":"http://www.sagegateshead.com/files/images/pageimage/1683.7123dea7/630x397.fitandcrop.jpg"},"v_3":{"name":"Dingwalls","postcode":"NW1 8AB","town":"Middle Yard, London","url":"http://www.dingwalls.com","icon":"http://www.dingwalls.com/stage/wp-content/uploads/2015/10/icon-dingwalls-black-large.png"},"v_4":{"name":"London Olympic Stadium","postcode":"EC1N 2ST","town":"London","url":"","icon":""},"v_5":{"name":"Royal Albert Hall","postcode":"SW7 2AP","town":"Kensington Gore, London","url":"https://www.royalalberthall.com/","icon":"http://www.logo-designer.co/wp-content/uploads/2015/02/BrandPie-logo-design-Royal-Albert-Hall-3.png"},"v_6":{"name":"The O2","postcode":"SE10 0DX","town":"Peninsula Square, London","url":"https://www.theo2.co.uk/","icon":"http://theo2.s3.amazonaws.com/img/VenueLanding_TheO2Arena_logo.jpg"},"v_7":{"name":"Manchester Arena","postcode":"M3 1AR","town":"Manchester","url":"http://www.manchester-arena.com/","icon":""},"v_8":{"name":"O2 Institute Birmingham","postcode":"B5 6DY","town":"Birmingham","url":"","icon":""}}}
